[{"OBJECT_NAME":"ORBCOMM FM114","OBJECT_ID":"2015-081A","EPOCH":"2026-03-09T19:19:50.027232","MEAN_MOTION":14.58730278,"ECCENTRICITY":0.00012809,"INCLINATION":47.0041,"RA_OF_ASC_NODE":111.8258,"ARG_OF_PERICENTER":118.3075,"MEAN_ANOMALY":241.794,"EPHEMERIS_TYPE":0,"CLASSIFICATION_TYPE":"U","NORAD_CAT_ID":41179,"ELEMENT_SET_NO":999,"REV_AT_EPOCH":54324,"BSTAR":0.00018749739,"MEAN_MOTION_DOT":7.13e-6,"MEAN_MOTION_DDOT":0},{"OBJECT_NAME":"YIJIAN","OBJECT_ID":"2016-081B","EPOCH":"2026-03-09T22:34:34.332960","MEAN_MOTION":14.60631013,"ECCENTRICITY":0.00197345,"INCLINATION":98.5358,"RA_OF_ASC_NODE":63.7876,"ARG_OF_PERICENTER":255.3426,"MEAN_ANOMALY":104.5586,"EPHEMERIS_TYPE":0,"CLASSIFICATION_TYPE":"U","NORAD_CAT_ID":41899,"ELEMENT_SET_NO":999,"REV_AT_EPOCH":49010,"BSTAR":0.00020669629,"MEAN_MOTION_DOT":9.57e-6,"MEAN_MOTION_DDOT":0}]
